1 25994U 99068A   05001.09265780  .00000173  00000-0  48405-4 0  8393
2 25994  98.2243  78.0794 0000920  98.3543 261.7760 14.57102333268067
